NORAD_CAT_ID,OBJECT_NAME,OBJECT_TYPE,EPOCH,MEAN_MOTION,ECCENTRICITY,INCLINATION,RA_OF_ASC_NODE,ARG_OF_PERICENTER,MEAN_ANOMALY,BSTAR,MEAN_MOTION_DOT,MEAN_MOTION_DDOT,TLE_LINE0,TLE_LINE1,TLE_LINE2,SEMIMAJOR_AXIS,PERIOD,APOGEE,PERIGEE,DECAYED
55412.0,STARLINK-5033,PAYLOAD,2023-11-01 14:42:51,14.98319048,0.0002944,70.0002,90.3814,271.8814,88.2007,-4.4862e-05,-6.28e-06,0.0,0 STARLINK-5033,1 55412U 23014X   23305.61309965 -.00000628  00000-0 -44862-4 0  9995,2 55412  70.0002  90.3814 0002944 271.8814  88.2007 14.98319048 42887,6950.227,96.108,574.138,570.046,0.0
55412.0,STARLINK-5033,PAYLOAD,2023-11-01 19:31:15,14.9832607,0.000291,70.0003,89.8774,270.1458,89.9368,-0.00011291,-1.44e-05,0.0,0 STARLINK-5033,1 55412U 23014X   23305.81337793 -.00001440  00000-0 -11291-3 0  9999,2 55412  70.0003  89.8774 0002910 270.1458  89.9368 14.98326070 42910,6950.205,96.107,574.093,570.048,0.0
55412.0,STARLINK-5033,PAYLOAD,2023-11-02 03:31:56,14.98325641,0.0002781,70.0009,89.0351,270.1361,89.9479,-7.0954e-06,-1.78e-06,0.0,0 STARLINK-5033,1 55412U 23014X   23306.14717734 -.00000178  00000-0 -70954-5 0  9993,2 55412  70.0009  89.0351 0002781 270.1361  89.9479 14.98325641 42026,6950.206,96.107,574.004,570.139,0.0
55412.0,STARLINK-5033,PAYLOAD,2023-11-02 14:44:52,14.98331073,0.0003083,70.0005,87.8585,273.6952,86.3854,2.9248e-05,2.56e-06,0.0,0 STARLINK-5033,1 55412U 23014X   23306.61449198  .00000256  00000-0  29248-4 0  9995,2 55412  70.0005  87.8585 0003083 273.6952  86.3854 14.98331073 43033,6950.19,96.107,574.197,569.912,0.0
55412.0,STARLINK-5033,PAYLOAD,2023-11-02 19:33:15,14.98338035,0.0003021,70.0001,87.3533,271.1589,88.9224,0.00010106,1.113e-05,0.0,0 STARLINK-5033,1 55412U 23014X   23306.81476459  .00001113  00000-0  10106-3 0  9992,2 55412  70.0001  87.3533 0003021 271.1589  88.9224 14.98338035 42121,6950.168,96.106,574.133,569.933,0.0
55412.0,STARLINK-5033,PAYLOAD,2023-11-03 11:34:36,14.98325594,0.0002795,70.0009,85.671,270.1502,89.9337,8.3518e-05,9.04e-06,0.0,0 STARLINK-5033,1 55412U 23014X   23307.48237247  .00000904  00000-0  83518-4 0  9991,2 55412  70.0009  85.6710 0002795 270.1502  89.9337 14.98325594 42221,6950.207,96.107,574.014,570.129,0.0
55412.0,STARLINK-5033,PAYLOAD,2023-11-03 13:10:45,14.98331422,0.000245,70.0009,85.503,271.9282,88.1596,-1.083e-05,-2.22e-06,0.0,0 STARLINK-5033,1 55412U 23014X   23307.54913221 -.00000222  00000-0 -10830-4 0  9993,2 55412  70.0009  85.5030 0002450 271.9282  88.1596 14.98331422 43177,6950.188,96.107,573.756,570.351,0.0
55412.0,STARLINK-5033,PAYLOAD,2023-11-03 17:59:09,14.98325921,0.0002666,70.0013,84.9967,269.5173,90.5681,0.00010174,1.121e-05,0.0,0 STARLINK-5033,1 55412U 23014X   23307.74941225  .00001121  00000-0  10174-3 0  9997,2 55412  70.0013  84.9967 0002666 269.5173  90.5681 14.98325921 43208,6950.206,96.107,573.923,570.218,0.0
55412.0,STARLINK-5033,PAYLOAD,2023-11-04 01:59:50,14.98308464,0.0002508,70.0015,84.1557,258.7136,101.3741,0.00029082,3.377e-05,0.0,0 STARLINK-5033,1 55412U 23014X   23308.08321977  .00003377  00000-0  29082-3 0  9994,2 55412  70.0015  84.1557 0002508 258.7136 101.3741 14.98308464 42313,6950.259,96.108,573.868,570.381,0.0
55412.0,STARLINK-5033,PAYLOAD,2023-11-04 10:00:30,14.98328573,0.0002874,70.0012,83.314,269.7877,90.2953,-8.4541e-05,-1.101e-05,0.0,0 STARLINK-5033,1 55412U 23014X   23308.41701559 -.00001101  00000-0 -84541-4 0  9996,2 55412  70.0012  83.3140 0002874 269.7877  90.2953 14.98328573 42368,6950.197,96.107,574.06,570.065,0.0
55412.0,STARLINK-5033,PAYLOAD,2023-11-04 13:12:46,14.98329075,0.0002801,70.0012,82.9771,271.8336,88.2502,-8.5966e-05,-1.118e-05,0.0,0 STARLINK-5033,1 55412U 23014X   23308.55053559 -.00001118  00000-0 -85966-4 0  9991,2 55412  70.0012  82.9771 0002801 271.8336  88.2502 14.98329075 43329,6950.196,96.107,574.008,570.114,0.0
55412.0,STARLINK-5033,PAYLOAD,2023-11-04 18:01:10,14.9832807,0.0002671,70.001,82.4721,268.9985,91.0868,-7.9035e-05,-1.036e-05,0.0,0 STARLINK-5033,1 55412U 23014X   23308.75081616 -.00001036  00000-0 -79035-4 0  9997,2 55412  70.0010  82.4721 0002671 268.9985  91.0868 14.98328070 43353,6950.199,96.107,573.92,570.207,0.0
55412.0,STARLINK-5033,PAYLOAD,2023-11-05 02:01:50,14.98337041,0.000286,70.0007,81.6309,268.9008,91.1824,-7.0124e-05,-9.3e-06,0.0,0 STARLINK-5033,1 55412U 23014X   23309.08460882 -.00000930  00000-0 -70124-4 0  9992,2 55412  70.0007  81.6309 0002860 268.9008  91.1824 14.98337041 42460,6950.171,96.107,574.024,570.048,0.0
55412.0,STARLINK-5033,PAYLOAD,2023-11-05 14:50:53,14.98347629,0.0002937,69.9999,80.2818,266.7468,93.3355,0.00019596,2.247e-05,0.0,0 STARLINK-5033,1 55412U 23014X   23309.61867306  .00002247  00000-0  19596-3 0  9999,2 55412  69.9999  80.2818 0002937 266.7468  93.3355 14.98347629 43487,6950.138,96.106,574.045,569.962,0.0
55412.0,STARLINK-5033,PAYLOAD,2023-11-05 18:03:09,14.98346981,0.0002985,70.0001,79.9454,263.0858,96.9962,0.00032516,3.791e-05,0.0,0 STARLINK-5033,1 55412U 23014X   23309.75218828  .00003791  00000-0  32516-3 0  9995,2 55412  70.0001  79.9454 0002985 263.0858  96.9962 14.98346981 42562,6950.14,96.106,574.08,569.931,0.0
55412.0,STARLINK-5033,PAYLOAD,2023-11-06 11:40:38,14.98332383,0.0002998,70.0005,78.0954,266.7023,93.3793,8.9349e-05,9.73e-06,0.0,0 STARLINK-5033,1 55412U 23014X   23310.48655744  .00000973  00000-0  89349-4 0  9995,2 55412  70.0005  78.0954 0002998 266.7023  93.3793 14.98332383 42675,6950.186,96.107,574.134,569.967,0.0
55412.0,STARLINK-5033,PAYLOAD,2023-11-06 14:52:53,14.98343167,0.0003088,69.9999,77.7577,267.2435,92.8371,0.00013783,1.552e-05,0.0,0 STARLINK-5033,1 55412U 23014X   23310.62006863  .00001552  00000-0  13783-3 0  9995,2 55412  69.9999  77.7577 0003088 267.2435  92.8371 14.98343167 43630,6950.152,96.106,574.163,569.871,0.0
55412.0,STARLINK-5033,PAYLOAD,2023-11-06 18:05:13,14.9830271,0.0003151,69.9999,77.4211,273.1842,86.8957,-0.00031735,-3.875e-05,0.0,0 STARLINK-5033,1 55412U 23014X   23310.75362583 -.00003875  00000-0 -31735-3 0  9992,2 55412  69.9999  77.4211 0003151 273.1842  86.8957 14.98302710 42711,6950.277,96.109,574.332,569.952,0.0
55412.0,STARLINK-5033,PAYLOAD,2023-11-07 02:05:53,14.98308205,0.0003207,70.0003,76.5786,270.4487,89.6305,-0.00031561,-3.855e-05,0.0,0 STARLINK-5033,1 55412U 23014X   23311.08742583 -.00003855  00000-0 -31561-3 0  9996,2 55412  70.0003  76.5786 0003207 270.4487  89.6305 14.98308205 42762,6950.26,96.108,574.354,569.896,0.0
55412.0,STARLINK-5033,PAYLOAD,2023-11-07 11:42:41,14.98317797,0.0002962,70.0005,75.5702,271.3255,88.7564,-0.00023558,-2.902e-05,0.0,0 STARLINK-5033,1 55412U 23014X   23311.48798182 -.00002902  00000-0 -23558-3 0  9995,2 55412  70.0005  75.5702 0002962 271.3255  88.7564 14.98317797 42821,6950.231,96.108,574.154,570.037,0.0
55412.0,STARLINK-5033,PAYLOAD,2023-11-07 13:18:49,14.98317708,0.0002968,70.0003,75.4011,271.7142,88.3677,-0.00022197,-2.74e-05,0.0,0 STARLINK-5033,1 55412U 23014X   23311.55474192 -.00002740  00000-0 -22197-3 0  9993,2 55412  70.0003  75.4011 0002968 271.7142  88.3677 14.98317708 43774,6950.231,96.108,574.159,570.033,0.0
55412.0,STARLINK-5033,PAYLOAD,2023-11-07 18:07:13,14.98324415,0.0003045,70.0005,74.8976,273.1209,86.9602,-0.0001935,-2.401e-05,0.0,0 STARLINK-5033,1 55412U 23014X   23311.75501794 -.00002401  00000-0 -19350-3 0  9995,2 55412  70.0005  74.8976 0003045 273.1209  86.9602 14.98324415 42860,6950.21,96.107,574.192,569.959,0.0
55412.0,STARLINK-5033,PAYLOAD,2023-11-08 02:07:53,14.98335965,0.0003418,70.0004,74.055,272.4915,87.5853,-0.00021938,-2.71e-05,0.0,0 STARLINK-5033,1 55412U 23014X   23312.08881009 -.00002710  00000-0 -21938-3 0  9990,2 55412  70.0004  74.0550 0003418 272.4915  87.5853 14.98335965 42912,6950.174,96.107,574.415,569.664,0.0
55412.0,STARLINK-5033,PAYLOAD,2023-11-08 13:20:49,14.98335742,0.0003146,70.0003,72.877,269.2752,90.8047,9.5541e-05,1.047e-05,0.0,0 STARLINK-5033,1 55412U 23014X   23312.55612270  .00001047  00000-0  95541-4 0  9996,2 55412  70.0003  72.8770 0003146 269.2752  90.8047 14.98335742 43929,6950.175,96.107,574.227,569.854,0.0
55412.0,STARLINK-5033,PAYLOAD,2023-11-08 18:09:13,14.98336959,0.0002836,70.0013,72.3723,269.291,90.7924,6.1196e-05,6.37e-06,0.0,0 STARLINK-5033,1 55412U 23014X   23312.75640323  .00000637  00000-0  61196-4 0  9991,2 55412  70.0013  72.3723 0002836 269.2910  90.7924 14.98336959 43018,6950.171,96.107,574.007,570.065,0.0
55412.0,STARLINK-5033,PAYLOAD,2023-11-09 11:46:42,14.98321674,0.000302,70.0022,70.5221,269.8421,90.2392,0.00015073,1.706e-05,0.0,0 STARLINK-5033,1 55412U 23014X   23313.49077368  .00001706  00000-0  15073-3 0  9996,2 55412  70.0022  70.5221 0003020 269.8421  90.2392 14.98321674 43124,6950.219,96.108,574.183,569.985,0.0
55412.0,STARLINK-5033,PAYLOAD,2023-11-09 13:22:51,14.98313938,0.0002582,70.0026,70.3544,258.3137,101.7732,0.00027427,3.18e-05,0.0,0 STARLINK-5033,1 55412U 23014X   23313.55753668  .00003180  00000-0  27427-3 0  9991,2 55412  70.0026  70.3544 0002582 258.3137 101.7732 14.98313938 44078,6950.243,96.108,573.902,570.313,0.0
55412.0,STARLINK-5033,PAYLOAD,2023-11-09 16:35:06,14.98336211,0.000256,70.0013,70.0168,276.7991,83.2876,7.7572e-07,-8.4e-07,0.0,0 STARLINK-5033,1 55412U 23014X   23313.69105003 -.00000084  00000-0  77572-6 0  9990,2 55412  70.0013  70.0168 0002560 276.7991  83.2876 14.98336211 43151,6950.174,96.107,573.818,570.259,0.0
55412.0,STARLINK-5033,PAYLOAD,2023-11-09 18:11:14,14.98331535,0.0003329,70.0014,69.8492,267.9732,92.1046,0.00019763,2.266e-05,0.0,0 STARLINK-5033,1 55412U 23014X   23313.75780570  .00002266  00000-0  19763-3 0  9993,2 55412  70.0014  69.8492 0003329 267.9732  92.1046 14.98331535 44105,6950.188,96.107,574.367,569.739,0.0
55412.0,STARLINK-5033,PAYLOAD,2023-11-10 00:35:47,14.98328269,0.0003088,70.0036,69.1738,276.5856,83.4951,9.8158e-05,1.078e-05,0.0,0 STARLINK-5033,1 55412U 23014X   23314.02485127  .00001078  00000-0  98158-4 0  9990,2 55412  70.0036  69.1738 0003088 276.5856  83.4951 14.98328269 43208,6950.198,96.107,574.209,569.917,0.0
